MEASAT 3D               
1 52904U 22067B   26064.17058906 -.00000250  00000+0  00000+0 0  9997
2 52904   0.0581 307.8380 0003112  22.2931 345.6684  1.00270798 13601
SES-22                  
1 52933U 22071A   26064.27041064  .00000000  00000+0  00000+0 0  9994
2 52933   0.0182 165.1796 0001096 177.5591 138.6347  1.00268648  6486
WFOV (USA 332)          
1 52940U 22073A   26064.25030390 -.00000369  00000+0  00000+0 0  9991
2 52940   3.4443  79.8719 0001687 217.1073  75.3583  1.00274535 13321
TIANLIAN 2-03           
1 53100U 22078A   26064.12058863  .00000063  00000+0  00000+0 0  9996
2 53100   0.4065  73.0633 0003302 253.1650 250.6268  1.00272188 13505
SBIRS GEO-6 (USA 336)   
1 53355U 22092A   26064.18287692 -.00000302  00000+0  00000+0 0  9991
2 53355   3.4362 315.8452 0002280  24.4419  27.4444  1.00271490 13198
EUTELSAT KONNECT VHTS   
1 53765U 22110A   26064.22716378  .00000008  00000+0  00000+0 0  9992
2 53765   0.0592 102.7732 0002968 213.1636 291.4865  1.00270447  5794
ZHONGXING-1E            
1 53813U 22112A   26064.17614138 -.00000157  00000+0  00000+0 0  9999
2 53813   0.0227 113.7834 0003317 190.6776   3.2012  1.00269671 12801
SES-20                  
1 53960U 22123A   26064.20627701 -.00000109  00000+0  00000+0 0  9995
2 53960   0.0163 109.1110 0001610 314.2769  70.6905  1.00271394 12498
SES-21                  
1 53961U 22123B   26063.97058425  .00000059  00000+0  00000+0 0  9993
2 53961   0.0268  68.6242 0001274 271.7551  40.7495  1.00273978  6161
GALAXY 33 (G-33)        
1 54026U 22128A   26064.01780892  .00000000  00000+0  00000+0 0  9993
2 54026   0.0175 165.2977 0001884 177.9169  52.9895  1.00273895 12691
GALAXY 34 (G-34)        
1 54027U 22128B   26064.09072645  .00000050  00000+0  00000+0 0  9997
2 54027   0.0130 129.5428 0001376 217.6718  79.2813  1.00273187 12860
ANGOSAT 2               
1 54033U 22131A   26064.30256413  .00000127  00000+0  00000+0 0  9994
2 54033   0.0019 185.9282 0000348 266.6709 202.3459  1.00271204 12435
EUTELSAT HOTBIRD 13F    
1 54048U 22134A   26064.22924380  .00000078  00000+0  00000+0 0  9994
2 54048   0.0571 296.5070 0002057  63.0829 258.8856  1.00272104 12335
LDPE-2                  
1 54219U 22144A   26063.66624991 -.00000359  00000+0  00000+0 0  9990
2 54219   5.3889  64.3047 0000505 229.9643 211.4914  1.00557881 10799
EUTELSAT HOTBIRD 13G    
1 54225U 22146A   26064.22924380  .00000078  00000+0  00000+0 0  9994
2 54225   0.0451 227.7099 0001900 313.0529  77.7197  1.00272239  6425
ZHONGXING-19            
1 54230U 22148A   26064.25897060 -.00000090  00000+0  00000+0 0  9994
2 54230   0.0209 101.7815 0002592 241.1694  76.4760  1.00271626 12339
GALAXY 31 (G-31)        
1 54243U 22153A   26064.20272367  .00000004  00000+0  00000+0 0  9990
2 54243   0.0113 189.4745 0001500 166.9254 118.5102  1.00272758  6097
