[{"OBJECT_NAME":"MEASAT 3D","OBJECT_ID":"2022-067B","EPOCH":"2026-03-05T04:05:38.894784","MEAN_MOTION":1.00270798,"ECCENTRICITY":0.00031128,"INCLINATION":0.0581,"RA_OF_ASC_NODE":307.838,"ARG_OF_PERICENTER":22.2931,"MEAN_ANOMALY":345.6684,"EPHEMERIS_TYPE":0,"CLASSIFICATION_TYPE":"U","NORAD_CAT_ID":52904,"ELEMENT_SET_NO":999,"REV_AT_EPOCH":1360,"BSTAR":0,"MEAN_MOTION_DOT":-2.5e-6,"MEAN_MOTION_DDOT":0},{"OBJECT_NAME":"SES-22","OBJECT_ID":"2022-071A","EPOCH":"2026-03-05T06:29:23.479296","MEAN_MOTION":1.00268648,"ECCENTRICITY":0.00010963,"INCLINATION":0.0182,"RA_OF_ASC_NODE":165.1796,"ARG_OF_PERICENTER":177.5591,"MEAN_ANOMALY":138.6347,"EPHEMERIS_TYPE":0,"CLASSIFICATION_TYPE":"U","NORAD_CAT_ID":52933,"ELEMENT_SET_NO":999,"REV_AT_EPOCH":648,"BSTAR":0,"MEAN_MOTION_DOT":0,"MEAN_MOTION_DDOT":0},{"OBJECT_NAME":"WFOV (USA 332)","OBJECT_ID":"2022-073A","EPOCH":"2026-03-05T06:00:26.256960","MEAN_MOTION":1.00274535,"ECCENTRICITY":0.00016873,"INCLINATION":3.4443,"RA_OF_ASC_NODE":79.8719,"ARG_OF_PERICENTER":217.1073,"MEAN_ANOMALY":75.3583,"EPHEMERIS_TYPE":0,"CLASSIFICATION_TYPE":"U","NORAD_CAT_ID":52940,"ELEMENT_SET_NO":999,"REV_AT_EPOCH":1332,"BSTAR":0,"MEAN_MOTION_DOT":-3.69e-6,"MEAN_MOTION_DDOT":0},{"OBJECT_NAME":"TIANLIAN 2-03","OBJECT_ID":"2022-078A","EPOCH":"2026-03-05T02:53:38.857632","MEAN_MOTION":1.00272188,"ECCENTRICITY":0.00033029,"INCLINATION":0.4065,"RA_OF_ASC_NODE":73.0633,"ARG_OF_PERICENTER":253.165,"MEAN_ANOMALY":250.6268,"EPHEMERIS_TYPE":0,"CLASSIFICATION_TYPE":"U","NORAD_CAT_ID":53100,"ELEMENT_SET_NO":999,"REV_AT_EPOCH":1350,"BSTAR":0,"MEAN_MOTION_DOT":6.3e-7,"MEAN_MOTION_DDOT":0},{"OBJECT_NAME":"SBIRS GEO-6 (USA 336)","OBJECT_ID":"2022-092A","EPOCH":"2026-03-05T04:23:20.565888","MEAN_MOTION":1.0027149,"ECCENTRICITY":0.00022805,"INCLINATION":3.4362,"RA_OF_ASC_NODE":315.8452,"ARG_OF_PERICENTER":24.4419,"MEAN_ANOMALY":27.4444,"EPHEMERIS_TYPE":0,"CLASSIFICATION_TYPE":"U","NORAD_CAT_ID":53355,"ELEMENT_SET_NO":999,"REV_AT_EPOCH":1319,"BSTAR":0,"MEAN_MOTION_DOT":-3.02e-6,"MEAN_MOTION_DDOT":0},{"OBJECT_NAME":"EUTELSAT KONNECT VHTS","OBJECT_ID":"2022-110A","EPOCH":"2026-03-05T05:27:06.950592","MEAN_MOTION":1.00270447,"ECCENTRICITY":0.00029685,"INCLINATION":0.0592,"RA_OF_ASC_NODE":102.7732,"ARG_OF_PERICENTER":213.1636,"MEAN_ANOMALY":291.4865,"EPHEMERIS_TYPE":0,"CLASSIFICATION_TYPE":"U","NORAD_CAT_ID":53765,"ELEMENT_SET_NO":999,"REV_AT_EPOCH":579,"BSTAR":0,"MEAN_MOTION_DOT":8.0e-8,"MEAN_MOTION_DDOT":0},{"OBJECT_NAME":"ZHONGXING-1E","OBJECT_ID":"2022-112A","EPOCH":"2026-03-05T04:13:38.615232","MEAN_MOTION":1.00269671,"ECCENTRICITY":0.00033176,"INCLINATION":0.0227,"RA_OF_ASC_NODE":113.7834,"ARG_OF_PERICENTER":190.6776,"MEAN_ANOMALY":3.2012,"EPHEMERIS_TYPE":0,"CLASSIFICATION_TYPE":"U","NORAD_CAT_ID":53813,"ELEMENT_SET_NO":999,"REV_AT_EPOCH":1280,"BSTAR":0,"MEAN_MOTION_DOT":-1.57e-6,"MEAN_MOTION_DDOT":0},{"OBJECT_NAME":"SES-20","OBJECT_ID":"2022-123A","EPOCH":"2026-03-05T04:57:02.333664","MEAN_MOTION":1.00271394,"ECCENTRICITY":0.00016102,"INCLINATION":0.0163,"RA_OF_ASC_NODE":109.111,"ARG_OF_PERICENTER":314.2769,"MEAN_ANOMALY":70.6905,"EPHEMERIS_TYPE":0,"CLASSIFICATION_TYPE":"U","NORAD_CAT_ID":53960,"ELEMENT_SET_NO":999,"REV_AT_EPOCH":1249,"BSTAR":0,"MEAN_MOTION_DOT":-1.09e-6,"MEAN_MOTION_DDOT":0},{"OBJECT_NAME":"SES-21","OBJECT_ID":"2022-123B","EPOCH":"2026-03-04T23:17:38.479200","MEAN_MOTION":1.00273978,"ECCENTRICITY":0.00012744,"INCLINATION":0.0268,"RA_OF_ASC_NODE":68.6242,"ARG_OF_PERICENTER":271.7551,"MEAN_ANOMALY":40.7495,"EPHEMERIS_TYPE":0,"CLASSIFICATION_TYPE":"U","NORAD_CAT_ID":53961,"ELEMENT_SET_NO":999,"REV_AT_EPOCH":616,"BSTAR":0,"MEAN_MOTION_DOT":5.9e-7,"MEAN_MOTION_DDOT":0},{"OBJECT_NAME":"GALAXY 33 (G-33)","OBJECT_ID":"2022-128A","EPOCH":"2026-03-05T00:25:38.690688","MEAN_MOTION":1.00273895,"ECCENTRICITY":0.00018847,"INCLINATION":0.0175,"RA_OF_ASC_NODE":165.2977,"ARG_OF_PERICENTER":177.9169,"MEAN_ANOMALY":52.9895,"EPHEMERIS_TYPE":0,"CLASSIFICATION_TYPE":"U","NORAD_CAT_ID":54026,"ELEMENT_SET_NO":999,"REV_AT_EPOCH":1269,"BSTAR":0,"MEAN_MOTION_DOT":0,"MEAN_MOTION_DDOT":0},{"OBJECT_NAME":"GALAXY 34 (G-34)","OBJECT_ID":"2022-128B","EPOCH":"2026-03-05T02:10:38.765280","MEAN_MOTION":1.00273187,"ECCENTRICITY":0.00013768,"INCLINATION":0.013,"RA_OF_ASC_NODE":129.5428,"ARG_OF_PERICENTER":217.6718,"MEAN_ANOMALY":79.2813,"EPHEMERIS_TYPE":0,"CLASSIFICATION_TYPE":"U","NORAD_CAT_ID":54027,"ELEMENT_SET_NO":999,"REV_AT_EPOCH":1286,"BSTAR":0,"MEAN_MOTION_DOT":5.0e-7,"MEAN_MOTION_DDOT":0},{"OBJECT_NAME":"ANGOSAT 2","OBJECT_ID":"2022-131A","EPOCH":"2026-03-05T07:15:41.540832","MEAN_MOTION":1.00271204,"ECCENTRICITY":3.485e-5,"INCLINATION":0.0019,"RA_OF_ASC_NODE":185.9282,"ARG_OF_PERICENTER":266.6709,"MEAN_ANOMALY":202.3459,"EPHEMERIS_TYPE":0,"CLASSIFICATION_TYPE":"U","NORAD_CAT_ID":54033,"ELEMENT_SET_NO":999,"REV_AT_EPOCH":1243,"BSTAR":0,"MEAN_MOTION_DOT":1.27e-6,"MEAN_MOTION_DDOT":0},{"OBJECT_NAME":"EUTELSAT HOTBIRD 13F","OBJECT_ID":"2022-134A","EPOCH":"2026-03-05T05:30:06.664320","MEAN_MOTION":1.00272104,"ECCENTRICITY":0.00020572,"INCLINATION":0.0571,"RA_OF_ASC_NODE":296.507,"ARG_OF_PERICENTER":63.0829,"MEAN_ANOMALY":258.8856,"EPHEMERIS_TYPE":0,"CLASSIFICATION_TYPE":"U","NORAD_CAT_ID":54048,"ELEMENT_SET_NO":999,"REV_AT_EPOCH":1233,"BSTAR":0,"MEAN_MOTION_DOT":7.8e-7,"MEAN_MOTION_DDOT":0},{"OBJECT_NAME":"LDPE-2","OBJECT_ID":"2022-144A","EPOCH":"2026-03-04T15:59:23.992224","MEAN_MOTION":1.00557881,"ECCENTRICITY":5.057e-5,"INCLINATION":5.3889,"RA_OF_ASC_NODE":64.3047,"ARG_OF_PERICENTER":229.9643,"MEAN_ANOMALY":211.4914,"EPHEMERIS_TYPE":0,"CLASSIFICATION_TYPE":"U","NORAD_CAT_ID":54219,"ELEMENT_SET_NO":999,"REV_AT_EPOCH":1079,"BSTAR":0,"MEAN_MOTION_DOT":-3.59e-6,"MEAN_MOTION_DDOT":0},{"OBJECT_NAME":"EUTELSAT HOTBIRD 13G","OBJECT_ID":"2022-146A","EPOCH":"2026-03-05T05:30:06.664320","MEAN_MOTION":1.00272239,"ECCENTRICITY":0.00019007,"INCLINATION":0.0451,"RA_OF_ASC_NODE":227.7099,"ARG_OF_PERICENTER":313.0529,"MEAN_ANOMALY":77.7197,"EPHEMERIS_TYPE":0,"CLASSIFICATION_TYPE":"U","NORAD_CAT_ID":54225,"ELEMENT_SET_NO":999,"REV_AT_EPOCH":642,"BSTAR":0,"MEAN_MOTION_DOT":7.8e-7,"MEAN_MOTION_DDOT":0},{"OBJECT_NAME":"ZHONGXING-19","OBJECT_ID":"2022-148A","EPOCH":"2026-03-05T06:12:55.059840","MEAN_MOTION":1.00271626,"ECCENTRICITY":0.00025929,"INCLINATION":0.0209,"RA_OF_ASC_NODE":101.7815,"ARG_OF_PERICENTER":241.1694,"MEAN_ANOMALY":76.476,"EPHEMERIS_TYPE":0,"CLASSIFICATION_TYPE":"U","NORAD_CAT_ID":54230,"ELEMENT_SET_NO":999,"REV_AT_EPOCH":1233,"BSTAR":0,"MEAN_MOTION_DOT":-9.0e-7,"MEAN_MOTION_DDOT":0},{"OBJECT_NAME":"GALAXY 31 (G-31)","OBJECT_ID":"2022-153A","EPOCH":"2026-03-05T04:51:55.325088","MEAN_MOTION":1.00272758,"ECCENTRICITY":0.00015009,"INCLINATION":0.0113,"RA_OF_ASC_NODE":189.4745,"ARG_OF_PERICENTER":166.9254,"MEAN_ANOMALY":118.5102,"EPHEMERIS_TYPE":0,"CLASSIFICATION_TYPE":"U","NORAD_CAT_ID":54243,"ELEMENT_SET_NO":999,"REV_AT_EPOCH":609,"BSTAR":0,"MEAN_MOTION_DOT":4.0e-8,"MEAN_MOTION_DDOT":0}]
